CCSDS_OMM_VERS = 2.0
CREATION_DATE  = 
ORIGINATOR     = 

OBJECT_NAME    = SL-3 R/B
OBJECT_ID      = 1982-079B
CENTER_NAME    = EARTH
REF_FRAME      = TEME
TIME_SYSTEM    = UTC
MEAN_ELEMENT_THEORY = SGP/SGP4

EPOCH          = 2026-03-12T07:00:08.686944
MEAN_MOTION    = 15.24843438
ECCENTRICITY   = .00251578
INCLINATION    = 81.1476
RA_OF_ASC_NODE = 190.0050
ARG_OF_PERICENTER = 156.0042
MEAN_ANOMALY   = 204.2370

EPHEMERIS_TYPE = 0
CLASSIFICATION_TYPE = U
NORAD_CAT_ID   = 13403
ELEMENT_SET_NO = 999
REV_AT_EPOCH   = 37809
BSTAR          = .29479791E-3
MEAN_MOTION_DOT = .7413E-4
MEAN_MOTION_DDOT = 0

CCSDS_OMM_VERS = 2.0
CREATION_DATE  = 
ORIGINATOR     = 

OBJECT_NAME    = SL-14 R/B
OBJECT_ID      = 1982-092B
CENTER_NAME    = EARTH
REF_FRAME      = TEME
TIME_SYSTEM    = UTC
MEAN_ELEMENT_THEORY = SGP/SGP4

EPOCH          = 2026-03-12T06:27:14.939424
MEAN_MOTION    = 14.86669232
ECCENTRICITY   = .00188897
INCLINATION    = 82.5690
RA_OF_ASC_NODE = 138.9872
ARG_OF_PERICENTER = 294.3272
MEAN_ANOMALY   = 129.1818

EPHEMERIS_TYPE = 0
CLASSIFICATION_TYPE = U
NORAD_CAT_ID   = 13553
ELEMENT_SET_NO = 999
REV_AT_EPOCH   = 32931
BSTAR          = .58417502E-4
MEAN_MOTION_DOT = .544E-5
MEAN_MOTION_DDOT = 0

CCSDS_OMM_VERS = 2.0
CREATION_DATE  = 
ORIGINATOR     = 

OBJECT_NAME    = SL-3 R/B
OBJECT_ID      = 1983-010B
CENTER_NAME    = EARTH
REF_FRAME      = TEME
TIME_SYSTEM    = UTC
MEAN_ELEMENT_THEORY = SGP/SGP4

EPOCH          = 2026-03-12T06:49:43.582080
MEAN_MOTION    = 15.46460028
ECCENTRICITY   = .00177572
INCLINATION    = 81.1061
RA_OF_ASC_NODE = 359.0661
ARG_OF_PERICENTER = 42.6261
MEAN_ANOMALY   = 317.6358

EPHEMERIS_TYPE = 0
CLASSIFICATION_TYPE = U
NORAD_CAT_ID   = 13819
ELEMENT_SET_NO = 999
REV_AT_EPOCH   = 35834
BSTAR          = .36815435E-3
MEAN_MOTION_DOT = .18399E-3
MEAN_MOTION_DDOT = 0

CCSDS_OMM_VERS = 2.0
CREATION_DATE  = 
ORIGINATOR     = 

OBJECT_NAME    = SL-3 R/B
OBJECT_ID      = 1983-075B
CENTER_NAME    = EARTH
REF_FRAME      = TEME
TIME_SYSTEM    = UTC
MEAN_ELEMENT_THEORY = SGP/SGP4

EPOCH          = 2026-03-12T05:22:12.913248
MEAN_MOTION    = 15.38485174
ECCENTRICITY   = .00203625
INCLINATION    = 97.6146
RA_OF_ASC_NODE = 75.8970
ARG_OF_PERICENTER = 216.2304
MEAN_ANOMALY   = 143.7563

EPHEMERIS_TYPE = 0
CLASSIFICATION_TYPE = U
NORAD_CAT_ID   = 14208
ELEMENT_SET_NO = 999
REV_AT_EPOCH   = 33054
BSTAR          = .32794371E-3
MEAN_MOTION_DOT = .12457E-3
MEAN_MOTION_DDOT = 0

CCSDS_OMM_VERS = 2.0
CREATION_DATE  = 
ORIGINATOR     = 

OBJECT_NAME    = COSMOS 1536
OBJECT_ID      = 1984-013A
CENTER_NAME    = EARTH
REF_FRAME      = TEME
TIME_SYSTEM    = UTC
MEAN_ELEMENT_THEORY = SGP/SGP4

EPOCH          = 2026-03-12T03:35:20.592096
MEAN_MOTION    = 15.23862176
ECCENTRICITY   = .00125295
INCLINATION    = 82.5429
RA_OF_ASC_NODE = 105.4050
ARG_OF_PERICENTER = 273.6666
MEAN_ANOMALY   = 86.3138

EPHEMERIS_TYPE = 0
CLASSIFICATION_TYPE = U
NORAD_CAT_ID   = 14699
ELEMENT_SET_NO = 999
REV_AT_EPOCH   = 27299
BSTAR          = .27693522E-3
MEAN_MOTION_DOT = .6724E-4
MEAN_MOTION_DDOT = 0

CCSDS_OMM_VERS = 2.0
CREATION_DATE  = 
ORIGINATOR     = 

OBJECT_NAME    = SL-14 R/B
OBJECT_ID      = 1984-027B
CENTER_NAME    = EARTH
REF_FRAME      = TEME
TIME_SYSTEM    = UTC
MEAN_ELEMENT_THEORY = SGP/SGP4

EPOCH          = 2026-03-11T23:34:57.875520
MEAN_MOTION    = 14.85978988
ECCENTRICITY   = .00171865
INCLINATION    = 82.5389
RA_OF_ASC_NODE = 242.8615
ARG_OF_PERICENTER = 330.0492
MEAN_ANOMALY   = 29.9739

EPHEMERIS_TYPE = 0
CLASSIFICATION_TYPE = U
NORAD_CAT_ID   = 14820
ELEMENT_SET_NO = 999
REV_AT_EPOCH   = 24797
BSTAR          = .62610393E-4
MEAN_MOTION_DOT = .572E-5
MEAN_MOTION_DDOT = 0

CCSDS_OMM_VERS = 2.0
CREATION_DATE  = 
ORIGINATOR     = 

OBJECT_NAME    = SL-8 R/B
OBJECT_ID      = 1985-006B
CENTER_NAME    = EARTH
REF_FRAME      = TEME
TIME_SYSTEM    = UTC
MEAN_ELEMENT_THEORY = SGP/SGP4

EPOCH          = 2026-03-11T23:07:27.487776
MEAN_MOTION    = 14.37784706
ECCENTRICITY   = .0018363
INCLINATION    = 74.0432
RA_OF_ASC_NODE = 256.9639
ARG_OF_PERICENTER = 174.2338
MEAN_ANOMALY   = 295.6293

EPHEMERIS_TYPE = 0
CLASSIFICATION_TYPE = U
NORAD_CAT_ID   = 15483
ELEMENT_SET_NO = 999
REV_AT_EPOCH   = 15435
BSTAR          = .12719E-3
MEAN_MOTION_DOT = .358E-5
MEAN_MOTION_DDOT = 0

CCSDS_OMM_VERS = 2.0
CREATION_DATE  = 
ORIGINATOR     = 

OBJECT_NAME    = SL-12 R/B(2)
OBJECT_ID      = 1985-042D
CENTER_NAME    = EARTH
REF_FRAME      = TEME
TIME_SYSTEM    = UTC
MEAN_ELEMENT_THEORY = SGP/SGP4

EPOCH          = 2026-03-12T07:16:06.786912
MEAN_MOTION    = 14.21983167
ECCENTRICITY   = .00331214
INCLINATION    = 71.1063
RA_OF_ASC_NODE = 82.2072
ARG_OF_PERICENTER = 123.8396
MEAN_ANOMALY   = 327.4127

EPHEMERIS_TYPE = 0
CLASSIFICATION_TYPE = U
NORAD_CAT_ID   = 15772
ELEMENT_SET_NO = 999
REV_AT_EPOCH   = 11476
BSTAR          = .91004914E-4
MEAN_MOTION_DOT = .155E-5
MEAN_MOTION_DDOT = 0

CCSDS_OMM_VERS = 2.0
CREATION_DATE  = 
ORIGINATOR     = 

OBJECT_NAME    = SL-14 R/B
OBJECT_ID      = 1985-069B
CENTER_NAME    = EARTH
REF_FRAME      = TEME
TIME_SYSTEM    = UTC
MEAN_ELEMENT_THEORY = SGP/SGP4

EPOCH          = 2026-03-12T07:16:44.014080
MEAN_MOTION    = 14.86436837
ECCENTRICITY   = .001871
INCLINATION    = 82.5289
RA_OF_ASC_NODE = 22.4756
ARG_OF_PERICENTER = 178.9744
MEAN_ANOMALY   = 181.1515

EPHEMERIS_TYPE = 0
CLASSIFICATION_TYPE = U
NORAD_CAT_ID   = 15945
ELEMENT_SET_NO = 999
REV_AT_EPOCH   = 17322
BSTAR          = .75042234E-4
MEAN_MOTION_DOT = .689E-5
MEAN_MOTION_DDOT = 0

CCSDS_OMM_VERS = 2.0
CREATION_DATE  = 
ORIGINATOR     = 

OBJECT_NAME    = SL-16 R/B
OBJECT_ID      = 1985-097B
CENTER_NAME    = EARTH
REF_FRAME      = TEME
TIME_SYSTEM    = UTC
MEAN_ELEMENT_THEORY = SGP/SGP4

EPOCH          = 2026-03-12T07:38:10.233600
MEAN_MOTION    = 14.16598273
ECCENTRICITY   = .00098496
INCLINATION    = 71.0023
RA_OF_ASC_NODE = 135.0211
ARG_OF_PERICENTER = 256.5609
MEAN_ANOMALY   = 171.4207

EPHEMERIS_TYPE = 0
CLASSIFICATION_TYPE = U
NORAD_CAT_ID   = 16182
ELEMENT_SET_NO = 999
REV_AT_EPOCH   = 8760
BSTAR          = -.47250958E-4
MEAN_MOTION_DOT = -.142E-5
MEAN_MOTION_DDOT = 0

CCSDS_OMM_VERS = 2.0
CREATION_DATE  = 
ORIGINATOR     = 

OBJECT_NAME    = SL-14 R/B
OBJECT_ID      = 1986-006B
CENTER_NAME    = EARTH
REF_FRAME      = TEME
TIME_SYSTEM    = UTC
MEAN_ELEMENT_THEORY = SGP/SGP4

EPOCH          = 2026-03-12T00:15:05.049504
MEAN_MOTION    = 14.86818268
ECCENTRICITY   = .00750568
INCLINATION    = 82.5236
RA_OF_ASC_NODE = 257.5523
ARG_OF_PERICENTER = 264.9426
MEAN_ANOMALY   = 94.3220

EPHEMERIS_TYPE = 0
CLASSIFICATION_TYPE = U
NORAD_CAT_ID   = 16496
ELEMENT_SET_NO = 999
REV_AT_EPOCH   = 14955
BSTAR          = .76875886E-4
MEAN_MOTION_DOT = .746E-5
MEAN_MOTION_DDOT = 0

CCSDS_OMM_VERS = 2.0
CREATION_DATE  = 
ORIGINATOR     = 

OBJECT_NAME    = COSMOS 1743
OBJECT_ID      = 1986-034A
CENTER_NAME    = EARTH
REF_FRAME      = TEME
TIME_SYSTEM    = UTC
MEAN_ELEMENT_THEORY = SGP/SGP4

EPOCH          = 2026-03-12T00:25:11.695872
MEAN_MOTION    = 15.58731417
ECCENTRICITY   = .00014861
INCLINATION    = 82.5293
RA_OF_ASC_NODE = 71.3874
ARG_OF_PERICENTER = 269.8959
MEAN_ANOMALY   = 90.2126

EPHEMERIS_TYPE = 0
CLASSIFICATION_TYPE = U
NORAD_CAT_ID   = 16719
ELEMENT_SET_NO = 999
REV_AT_EPOCH   = 18061
BSTAR          = .44741719E-3
MEAN_MOTION_DOT = .34559E-3
MEAN_MOTION_DDOT = 0

